0 NANOSAT 1B
1 35685U 09041E   13283.41234485  .00000932  00000-0  12312-3 0  3113
2 35685 098.0871 209.8782 0063948 090.6913 047.5578 14.81074794226816
0 NANOSAT 1B
1 35685U 09041E   13284.42550429  .00000997  00000-0  13127-3 0  3121
2 35685 098.0873 210.9001 0063926 087.4788 049.5217 14.81076727226961
0 NANOSAT 1B
1 35685U 09041E   13285.43862142  .00000880  00000-0  11674-3 0  3138
2 35685 098.0875 211.9220 0063898 084.2716 051.2660 14.81078520227114
0 NANOSAT 1B
1 35685U 09041E   13286.77426587  .00000975  00000-0  12853-3 0  3141
2 35685 098.0878 213.2691 0063836 080.0492 332.6716 14.81080521227315
0 NANOSAT 1B
1 35685U 09041E   13287.78773399  .00001378  00000-0  17866-3 0  3157
2 35685 098.0880 214.2915 0063791 076.8308 336.3119 14.81083891227464
0 NANOSAT 1B
1 35685U 09041E   13289.00452510  .00001411  00000-0  18278-3 0  3160
2 35685 098.0881 215.5189 0063765 072.9844 344.0379 14.81088078227641
0 NANOSAT 1B
1 35685U 09041E   13290.43798953  .00001405  00000-0  18201-3 0  3173
2 35685 098.0882 216.9650 0063727 068.4352 067.0686 14.81093241227856
0 NANOSAT 1B
1 35685U 09041E   13291.77357241  .00001531  00000-0  19761-3 0  3185
2 35685 098.0882 218.3125 0063635 064.1954 348.2378 14.81095586228057
0 NANOSAT 1B
1 35685U 09041E   13292.78139333  .00001693  00000-0  21784-3 0  3195
2 35685 098.0882 219.3293 0063570 060.9922 321.8313 14.81098350228206
0 NANOSAT 1B
1 35685U 09041E   13293.80138821  .00001670  00000-0  21493-3 0  3204
2 35685 098.0883 220.3584 0063520 057.7722 000.3208 14.81101945228352
0 NANOSAT 1B
1 35685U 09041E   13294.88008395  .00001755  00000-0  22558-3 0  3213
2 35685 098.0883 221.4467 0063425 054.3461 351.8322 14.81105712228516
0 NANOSAT 1B
1 35685U 09041E   13296.17961606  .00001749  00000-0  22480-3 0  3228
2 35685 098.0885 222.7578 0063314 050.2002 080.8601 14.81110656228701
